STARLINK-34885          
1 65328U 25189F   26068.67273220  .00023571  00000+0  80554-3 0  9992
2 65328  53.1575 206.8608 0000966  93.0634 267.0477 15.30195960 31048
KUIPER-00175            
1 67135U 25301C   26068.97960463  .00019968  00000+0  66732-3 0  9998
2 67135  51.8781  63.6978 0002279  50.5695 309.5490 15.30996371 13854
